[{"OBJECT_NAME":"LEMUR-2-LLOYD","OBJECT_ID":"2024-149DP","EPOCH":"2026-03-09T11:02:25.245024","MEAN_MOTION":15.07168338,"ECCENTRICITY":0.00051866,"INCLINATION":97.678,"RA_OF_ASC_NODE":149.6779,"ARG_OF_PERICENTER":125.6096,"MEAN_ANOMALY":234.5616,"EPHEMERIS_TYPE":0,"CLASSIFICATION_TYPE":"U","NORAD_CAT_ID":60577,"ELEMENT_SET_NO":999,"REV_AT_EPOCH":8536,"BSTAR":0.00080142638,"MEAN_MOTION_DOT":0.00012007,"MEAN_MOTION_DDOT":0},{"OBJECT_NAME":"STARLINK-34703","OBJECT_ID":"2025-191J","EPOCH":"2026-03-09T15:25:19.693056","MEAN_MOTION":15.05650979,"ECCENTRICITY":0.0002511,"INCLINATION":97.6023,"RA_OF_ASC_NODE":301.5004,"ARG_OF_PERICENTER":76.2496,"MEAN_ANOMALY":283.901,"EPHEMERIS_TYPE":0,"CLASSIFICATION_TYPE":"U","NORAD_CAT_ID":65387,"ELEMENT_SET_NO":999,"REV_AT_EPOCH":3026,"BSTAR":0.00034514,"MEAN_MOTION_DOT":4.923e-5,"MEAN_MOTION_DDOT":0}]
